#dP2024 12 22 12  0  0.00000000      96 __u+U IGS20 EXT  IAC
## 2346  43200.00000000   900.00000000 60666 0.5000000000000
+   52   G02G03G04G05G06G07G08G09G10G11G12G13G14G15G16G17G18
+        G19G20G21G22G23G24G25G26G27G28G29G30G31G32R01R02R03
+        R04R05R07R08R09R11R12R14R15R16R17R18R19R20R21R22R24
+        R26  0  0  0  0  0  0  0  0  0  0  0  0  0  0  0  0
+          0  0  0  0  0  0  0  0  0  0  0  0  0  0  0  0  0
++         6  8  7  7  6  7  7  7  7  7  8  7  7  8  7  7  8
++         6  8  7  7  8  7  7  7  7  7  8  6  7  7  8  7  8
++         8  7 10  7  8  7  7  8  8  8  7  8  9  8  8  9  8
++         9  0  0  0  0  0  0  0  0  0  0  0  0  0  0  0  0
++         0  0  0  0  0  0  0  0  0  0  0  0  0  0  0  0  0
%c M  cc GPS ccc cccc cccc cccc cccc ccccc ccccc ccccc ccccc
%c cc cc ccc ccc cccc cccc cccc cccc ccccc ccccc ccccc ccccc
%f  0.0000000  0.000000000  0.00000000000  0.000000000000000
%f  0.0000000  0.000000000  0.00000000000  0.000000000000000
%i    0    0    0    0      0      0      0      0         0
%i    0    0    0    0      0      0      0      0         0
/* IAC                                ULTRA-RAPID PREDICTION
/* S/V CLOCKS ARE ALIGNED TO GNSS TIME                      
/* G:C1WC2W R:C1PC2P E:C1XC5X C:C2IC6I J:C1CC2S             
/* PCV:IGS20_2317 OL/AL:FES2004  NONE     YN ORB:CoN CLK:CoN
*  2024 12 23  0  0  0.00000000
PG02  15311.985191  -1894.662416  22109.012865   -285.701808
PG03  22300.758880 -11256.562822   8689.745401    630.598428
PG04  22436.361325  -1669.815428 -14219.351299    500.191342
PG05 -17911.397471  -1580.919509 -19745.444387   -196.811398
PG06  -5536.813943 -25835.873661  -1883.979054    -64.283558
PG07   8317.511320 -18679.937533 -16169.351685    -14.797364
PG08  25981.613861   5596.193910   3381.126186    444.668401
PG09  15744.831419  -9158.089531 -19442.934534    498.343797
PG10  -3867.903651  19010.263103  18212.553189   -245.431245
PG11 -12120.898277 -19348.595596 -13579.322008   -752.720516
PG12 -22846.311403   7233.172064  11116.019108   -560.002515
PG13 -22468.861676 -14141.578601  -2990.426337    690.935055
PG14   7619.899834 -20358.238075  15146.409124    565.514786
PG15 -26256.188274  -2417.031348   3264.632311    242.787485
PG16  14555.577207   7853.716256 -21223.013231    -96.519229
PG17   -593.147288 -16280.669745  21350.376629    507.617935
PG18  -6959.880339  20619.663001 -15036.631352   -659.890807
PG19 -11828.365587 -17824.897080  15874.845864    577.105835
PG20  -9638.211853 -12149.133184 -21488.266213    367.671770
PG21  16616.381221   6157.724250  20471.428752     97.725506
PG22    760.128638 -17826.574156  20156.702486    -88.031273
PG23 -15781.588048  20149.181854   6671.436187    388.953632
PG24 -16091.324103   -464.223322  20708.580348   -471.184145
PG25 -19637.104831  17664.842125   -263.358664    497.780168
PG26   5803.106205  15935.769622 -20544.899705    -18.962068
PG27  22315.651763  13077.003202  -7278.290799    -33.927706
PG28   5444.048167  25994.528285    241.462183   -515.622796
PG29 -16114.833017   7707.884121 -19739.926181   -553.652236
PG30    327.701853 -25493.639780  -6780.545673   -255.535598
PG31  10609.041472  22184.853601  -9793.572220   -219.443740
PG32   6097.075262  16764.338546  19970.018331   -554.640338
PR01 -22552.531635   5876.652966  10377.912742    108.691813
PR02  -8365.303585  10155.446653  21882.101993    -38.970706
PR03  11129.393261   9606.720471  20910.094716    113.731561
PR04  23686.202263   3940.902458   8668.714894    269.583346
PR05  23860.494686  -3763.205340  -8231.749804    142.605518
PR07 -11400.875210  -9509.652532 -20684.828841     97.451414
PR08 -23820.244368  -3576.746427  -8270.745192     -6.152288
PR09  10097.663794 -23157.957074   3206.242361    227.787275
PR11 -10034.045131  -4457.969135  23029.437500      3.599622
PR12 -15668.032322  14378.360513  14093.296442     48.737448
PR14    232.659473  18035.267019 -18041.184580     27.464131
PR15  11020.355730   2788.176803 -22822.943299     72.932573
PR16  15535.094806 -14336.386330 -14248.155971     31.851616
PR17  12060.805012  22359.700730  -2026.499437    150.884147
PR18  15626.901453  14763.587542  13791.223523    178.175769
PR19  12245.606760   1751.884746  22314.073799   -302.871572
PR20     43.731429 -17640.283518  18422.874498   -123.604313
PR21 -11321.297129 -22644.165606   3241.045157   -161.818951
PR22 -15491.999081 -13985.600425 -14625.986964    -50.785744
PR24    876.605849  18134.353887 -17886.340864    -85.148256
PR26 -23034.483419  -4283.408070 -10085.753850   -132.512846
*  2024 12 23  0 15  0.00000000
PG02  16007.469450    404.661152  21714.689373   -285.693775
PG03  21547.863939 -10351.338925  11288.480856    630.606059
PG04  23779.795379   -994.863992 -11930.297698    500.196814
PG05 -16352.886495  -3251.261636 -20865.673499   -196.812416
PG06  -5368.314255 -25927.325152   1034.000306    -64.308929
PG07   8960.690994 -16710.630412 -17877.965371    -14.796460
PG08  26144.311624   5900.410996    584.828822    444.676215
PG09  17747.887933  -8444.283691 -17985.085022    498.358047
PG10  -5395.046635  20221.486144  16376.245730   -245.445344
PG11 -12166.761425 -20783.578396 -11225.821025   -752.720483
PG12 -21846.002196   6161.568804  13467.677485   -560.004596
PG13 -21958.204276 -14111.582839  -5798.207806    690.936282
PG14   8996.496719 -21238.379076  13005.451259    565.521565
PG15 -26476.268325  -2765.164501    474.316309    242.791583
PG16  12681.416190   9321.699195 -21793.505184    -96.510603
PG17   1655.406944 -15467.810609  21920.146915    507.603180
PG18  -7477.514567  18842.216576 -17008.145540   -659.890209
PG19 -10007.907212 -17175.624155  17682.921658    577.110067
PG20  -8116.759689 -14064.968998 -20955.669867    367.671476
PG21  17225.707656   8241.045269  19270.898744     97.727727
PG22   2530.757471 -19048.088708  18853.570858    -88.033397
PG23 -16355.907766  20416.165165   3843.707509    388.960520
PG24 -16776.812409  -2795.648906  20021.024036   -471.181149
PG25 -19725.545212  17321.066431   2580.739506    497.779743
PG26   4159.784966  17521.518496 -19587.247644    -18.975046
PG27  21364.638850  12995.586983  -9878.939062    -33.927348
PG28   5150.559205  25869.957917   3089.568736   -515.632203
PG29 -18080.779001   6797.100476 -18328.584239   -553.649231
PG30    851.731606 -24632.706370  -9387.634748   -255.528208
PG31  10520.942317  23170.056380  -7159.451519   -219.443066
PG32   3884.499061  16162.055656  20986.746139   -554.634693
PR01 -23636.381253   6100.767890   7413.694600    108.692983
PR02 -10976.200154  10315.331916  20607.908885    -38.970463
PR03   8487.753875   9663.640460  22086.870496    113.732142
PR04  22436.132379   3816.138900  11571.477467    269.584756
PR05  24681.109708  -3968.841784  -5141.743114    142.606138
PR07  -8760.286022  -9567.101224 -21911.231042     97.452107
PR08 -22602.986699  -3481.919279 -11193.582962     -6.152362
PR09  10105.909055 -23372.870543     24.449459    227.789284
PR11  -8763.931625  -6990.995946  22916.476557      3.598175
PR12 -14724.579481  12744.923304  16483.695687     48.737891
PR14   -630.733956  19943.944661 -15897.411996     27.464174
PR15   9729.698009   5303.586281 -22963.710167     72.932273
PR16  14573.835911 -12685.135379 -16632.622899     31.851879
PR17  11973.069785  21882.809715  -5219.307500    150.887175
PR18  16575.625080  15976.370876  11061.033185    178.177496
PR19  13644.600065   4045.871085  21174.750131   -302.872738
PR20   1120.274774 -15507.229368  20224.546182   -123.604768
PR21 -11173.951286 -22036.117163   6403.801747   -161.821841
PR22 -16426.042261 -15349.827767 -12009.560208    -50.797414
PR24   -301.530762  16125.988114 -19732.306105    -85.149609
PR26 -21608.360214  -4208.235868 -12879.386846   -132.512530
EOF
